STARLINK-1263           
1 45405U 20019AX  26068.55551068 -.00001163  00000+0 -27141-4 0  9998
2 45405  53.1609 129.8934 0001496  91.1707 268.9465 15.30197423329958
CS1                     
1 49261U 21088B   26068.75173904  .00015722  00000+0  51176-3 0  9998
2 49261  97.3882 132.1684 0014129  78.0335 282.2490 15.31848439245182
