[{"OBJECT_NAME":"STARLINK-1263","OBJECT_ID":"2020-019AX","EPOCH":"2026-03-09T13:19:56.122752","MEAN_MOTION":15.30197423,"ECCENTRICITY":0.0001496,"INCLINATION":53.1609,"RA_OF_ASC_NODE":129.8934,"ARG_OF_PERICENTER":91.1707,"MEAN_ANOMALY":268.9465,"EPHEMERIS_TYPE":0,"CLASSIFICATION_TYPE":"U","NORAD_CAT_ID":45405,"ELEMENT_SET_NO":999,"REV_AT_EPOCH":32995,"BSTAR":-2.7141e-5,"MEAN_MOTION_DOT":-1.163e-5,"MEAN_MOTION_DDOT":0},{"OBJECT_NAME":"CS1","OBJECT_ID":"2021-088B","EPOCH":"2026-03-09T18:02:30.253920","MEAN_MOTION":15.31848439,"ECCENTRICITY":0.00141292,"INCLINATION":97.3882,"RA_OF_ASC_NODE":132.1684,"ARG_OF_PERICENTER":78.0335,"MEAN_ANOMALY":282.249,"EPHEMERIS_TYPE":0,"CLASSIFICATION_TYPE":"U","NORAD_CAT_ID":49261,"ELEMENT_SET_NO":999,"REV_AT_EPOCH":24518,"BSTAR":0.00051175576,"MEAN_MOTION_DOT":0.00015722,"MEAN_MOTION_DDOT":0}]
